[{"OBJECT_NAME":"JY1SAT (JO-97)","OBJECT_ID":"2018-099AX","EPOCH":"2026-03-09T16:28:19.890048","MEAN_MOTION":15.30302629,"ECCENTRICITY":0.00047232,"INCLINATION":97.4249,"RA_OF_ASC_NODE":131.3625,"ARG_OF_PERICENTER":256.6795,"MEAN_ANOMALY":103.3919,"EPHEMERIS_TYPE":0,"CLASSIFICATION_TYPE":"U","NORAD_CAT_ID":43803,"ELEMENT_SET_NO":999,"REV_AT_EPOCH":39839,"BSTAR":0.00060804308,"MEAN_MOTION_DOT":0.00017774,"MEAN_MOTION_DDOT":0},{"OBJECT_NAME":"STARLINK-30916","OBJECT_ID":"2023-178T","EPOCH":"2026-03-09T05:01:57.432864","MEAN_MOTION":15.30187173,"ECCENTRICITY":0.00011284,"INCLINATION":53.1626,"RA_OF_ASC_NODE":3.5031,"ARG_OF_PERICENTER":97.424,"MEAN_ANOMALY":262.6889,"EPHEMERIS_TYPE":0,"CLASSIFICATION_TYPE":"U","NORAD_CAT_ID":58391,"ELEMENT_SET_NO":999,"REV_AT_EPOCH":12981,"BSTAR":5.944348e-6,"MEAN_MOTION_DOT":-1.83e-6,"MEAN_MOTION_DDOT":0}]
