JY1SAT (JO-97)          
1 43803U 18099AX  26068.68634132  .00017774  00000+0  60804-3 0  9996
2 43803  97.4249 131.3625 0004723 256.6795 103.3919 15.30302628398390
STARLINK-30916          
1 58391U 23178T   26068.20969251 -.00000183  00000+0  59443-5 0  9995
2 58391  53.1626   3.5031 0001128  97.4240 262.6889 15.30187173129819
